Station name not available
Jun 06, 2014 - 10:30 AM EDT / 2014.06.06 1430 UTC
Wind: from the NE (040 degrees) at 12 MPH (10 KT):0
Visibility: greater than 7 mile(s):0
Sky conditions: partly cloudy
Weather: Towering cumulus clouds observed
Temperature: 87 F (31 C)
Dew Point: 59 F (15 C)
Relative Humidity: 37%
Pressure (altimeter): 29.88 in. Hg (1012 hPa)
ob: LUBM 061430Z 04010KT 9999 SCT049TCU 31/15 Q1012 R25/CLRD65
cycle: 14
