Paris-Aeroport Charles De Gaulle, France (LFPG) 49-01N 002-32E 109M
Jun 06, 2014 - 04:00 PM EDT / 2014.06.06 2000 UTC
Wind: from the E (100 degrees) at 8 MPH (7 KT):0
Visibility: greater than 7 mile(s):0
Temperature: 75 F (24 C)
Dew Point: 59 F (15 C)
Relative Humidity: 57%
Pressure (altimeter): 29.85 in. Hg (1011 hPa)
ob: LFPG 062000Z 10007KT CAVOK 24/15 Q1011 NOSIG
cycle: 20
